NORAD_CAT_ID,OBJECT_NAME,OBJECT_TYPE,EPOCH,MEAN_MOTION,ECCENTRICITY,INCLINATION,RA_OF_ASC_NODE,ARG_OF_PERICENTER,MEAN_ANOMALY,BSTAR,MEAN_MOTION_DOT,MEAN_MOTION_DDOT,TLE_LINE0,TLE_LINE1,TLE_LINE2,SEMIMAJOR_AXIS,PERIOD,APOGEE,PERIGEE,DECAYED
55665.0,STARLINK-5474,PAYLOAD,2023-09-16 10:11:00,14.98326241,0.0002788,69.9986,286.9827,268.7019,91.3821,0.00016045,1.822e-05,0.0,0 STARLINK-5474,1 55665U 23021AP  23259.42431523  .00001822  00000-0  16045-3 0  9992,2 55665  69.9986 286.9827 0002788 268.7019  91.3821 14.98326241 33387,6950.205,96.107,574.007,570.132,0.0
55665.0,STARLINK-5474,PAYLOAD,2023-09-16 11:47:08,14.98325447,0.0002713,69.9986,286.8142,267.0352,93.0496,0.0001839,2.102e-05,0.0,0 STARLINK-5474,1 55665U 23021AP  23259.49107527  .00002102  00000-0  18390-3 0  9990,2 55665  69.9986 286.8142 0002713 267.0352  93.0496 14.98325447 33694,6950.207,96.107,573.958,570.186,0.0
55665.0,STARLINK-5474,PAYLOAD,2023-09-17 11:49:09,14.98335928,0.0002728,69.999,284.2894,267.8861,92.1986,0.00012578,1.408e-05,0.0,0 STARLINK-5474,1 55665U 23021AP  23260.49246864  .00001408  00000-0  12578-3 0  9990,2 55665  69.9990 284.2894 0002728 267.8861  92.1986 14.98335928 33840,6950.175,96.107,573.936,570.144,0.0
55665.0,STARLINK-5474,PAYLOAD,2023-09-18 10:15:01,14.98354744,0.0002848,69.9993,281.9328,280.9072,79.1766,-0.00035406,-4.318e-05,0.0,0 STARLINK-5474,1 55665U 23021AP  23261.42710588 -.00004318  00000-0 -35406-3 0  9993,2 55665  69.9993 281.9328 0002848 280.9072  79.1766 14.98354744 33682,6950.116,96.105,573.961,570.002,0.0
55665.0,STARLINK-5474,PAYLOAD,2023-09-18 11:51:09,14.98351385,0.0002704,69.9992,281.7643,278.1261,81.9591,-0.00028148,-3.452e-05,0.0,0 STARLINK-5474,1 55665U 23021AP  23261.49386532 -.00003452  00000-0 -28148-3 0  9991,2 55665  69.9992 281.7643 0002704 278.1261  81.9591 14.98351385 33998,6950.127,96.106,573.871,570.112,0.0
55665.0,STARLINK-5474,PAYLOAD,2023-09-18 18:15:42,14.98346828,0.0002996,69.9993,281.0905,280.2035,79.8786,-0.00025101,-3.088e-05,0.0,0 STARLINK-5474,1 55665U 23021AP  23261.76090609 -.00003088  00000-0 -25101-3 0  9999,2 55665  69.9993 281.0905 0002996 280.2035  79.8786 14.98346828 34033,6950.141,96.106,574.088,569.924,0.0
55665.0,STARLINK-5474,PAYLOAD,2023-09-19 02:16:22,14.98335944,0.0002913,69.9993,280.249,275.0602,85.0225,-6.1806e-05,-8.3e-06,0.0,0 STARLINK-5474,1 55665U 23021AP  23262.09470774 -.00000830  00000-0 -61806-4 0  9996,2 55665  69.9993 280.2490 0002913 275.0602  85.0225 14.98335944 33789,6950.175,96.107,574.064,570.015,0.0
55665.0,STARLINK-5474,PAYLOAD,2023-09-20 02:18:23,14.98327971,0.0002816,69.9993,277.7242,270.6788,89.4048,-3.6387e-05,-5.27e-06,0.0,0 STARLINK-5474,1 55665U 23021AP  23263.09610918 -.00000527  00000-0 -36387-4 0  9992,2 55665  69.9993 277.7242 0002816 270.6788  89.4048 14.98327971 33932,6950.199,96.107,574.021,570.107,0.0
55665.0,STARLINK-5474,PAYLOAD,2023-09-20 11:55:12,14.98326146,0.0002851,69.9993,276.7143,270.1486,89.9346,-5.3172e-05,-7.27e-06,0.0,0 STARLINK-5474,1 55665U 23021AP  23263.49667130 -.00000727  00000-0 -53172-4 0  9997,2 55665  69.9993 276.7143 0002851 270.1486  89.9346 14.98326146 34299,6950.205,96.107,574.051,570.088,0.0
55665.0,STARLINK-5474,PAYLOAD,2023-09-20 18:19:44,14.98330264,0.0002969,69.9991,276.041,277.1523,82.9298,-0.0001125,-1.435e-05,0.0,0 STARLINK-5474,1 55665U 23021AP  23263.76371066 -.00001435  00000-0 -11250-3 0  9994,2 55665  69.9991 276.0410 0002969 277.1523  82.9298 14.98330264 34336,6950.192,96.107,574.121,569.994,0.0
55665.0,STARLINK-5474,PAYLOAD,2023-09-21 02:20:24,14.98328784,0.0002914,69.9991,275.1994,269.4689,90.6136,-9.9714e-06,-2.12e-06,0.0,0 STARLINK-5474,1 55665U 23021AP  23264.09750906 -.00000212  00000-0 -99714-5 0  9990,2 55665  69.9991 275.1994 0002914 269.4689  90.6136 14.98328784 34083,6950.197,96.107,574.087,570.036,0.0
55665.0,STARLINK-5474,PAYLOAD,2023-09-21 10:21:05,14.98328661,0.0002824,69.9988,274.3574,264.6091,95.4746,-3.3934e-05,-4.98e-06,0.0,0 STARLINK-5474,1 55665U 23021AP  23264.43131010 -.00000498  00000-0 -33934-4 0  9994,2 55665  69.9988 274.3574 0002824 264.6091  95.4746 14.98328661 34431,6950.197,96.107,574.025,570.099,0.0
55665.0,STARLINK-5474,PAYLOAD,2023-09-21 18:21:45,14.98328754,0.000284,69.9997,273.5157,270.1229,89.9604,1.0465e-05,3.2e-07,0.0,0 STARLINK-5474,1 55665U 23021AP  23264.76510960  .00000032  00000-0  10465-4 0  9991,2 55665  69.9997 273.5157 0002840 270.1229  89.9604 14.98328754 34481,6950.197,96.107,574.036,570.088,0.0
55665.0,STARLINK-5474,PAYLOAD,2023-09-22 03:58:33,14.9832857,0.000306,69.999,272.5061,269.2451,90.8358,5.3355e-05,5.44e-06,0.0,0 STARLINK-5474,1 55665U 23021AP  23265.16566801  .00000544  00000-0  53355-4 0  9994,2 55665  69.9990 272.5061 0003060 269.2451  90.8358 14.98328570 34245,6950.197,96.107,574.189,569.936,0.0
55665.0,STARLINK-5474,PAYLOAD,2023-09-22 10:23:05,14.98331839,0.0002929,69.9988,271.8322,265.8726,94.2099,7.6492e-05,8.2e-06,0.0,0 STARLINK-5474,1 55665U 23021AP  23265.43270520  .00000820  00000-0  76492-4 0  9998,2 55665  69.9988 271.8322 0002929 265.8726  94.2099 14.98331839 34583,6950.187,96.107,574.088,570.016,0.0
55665.0,STARLINK-5474,PAYLOAD,2023-09-22 18:23:46,14.98327163,0.0002581,70.0001,270.9906,264.6072,95.4792,6.4736e-05,6.79e-06,0.0,0 STARLINK-5474,1 55665U 23021AP  23265.76650994  .00000679  00000-0  64736-4 0  9991,2 55665  70.0001 270.9906 0002581 264.6072  95.4792 14.98327163 34639,6950.202,96.107,573.861,570.273,0.0
55665.0,STARLINK-5474,PAYLOAD,2023-09-23 10:25:06,14.98324243,0.000309,69.9987,269.3072,269.9955,90.085,0.00015254,1.727e-05,0.0,0 STARLINK-5474,1 55665U 23021AP  23266.43410777  .00001727  00000-0  15254-3 0  9994,2 55665  69.9987 269.3072 0003090 269.9955  90.0850 14.98324243 34439,6950.211,96.107,574.223,569.928,0.0
55665.0,STARLINK-5474,PAYLOAD,2023-09-24 10:27:07,14.98332996,0.000302,69.9989,266.7821,270.4586,89.6227,-2.7033e-06,-1.25e-06,0.0,0 STARLINK-5474,1 55665U 23021AP  23267.43550546 -.00000125  00000-0 -27033-5 0  9997,2 55665  69.9989 266.7821 0003020 270.4586  89.6227 14.98332996 34586,6950.184,96.107,574.148,569.95,0.0
55665.0,STARLINK-5474,PAYLOAD,2023-09-25 10:29:08,14.98333374,0.0002889,69.9991,264.2575,268.1925,91.8903,3.7348e-05,3.53e-06,0.0,0 STARLINK-5474,1 55665U 23021AP  23268.43690235  .00000353  00000-0  37348-4 0  9998,2 55665  69.9991 264.2575 0002889 268.1925  91.8903 14.98333374 35039,6950.182,96.107,574.055,570.04,0.0
55665.0,STARLINK-5474,PAYLOAD,2023-09-25 16:53:40,14.98331167,0.0002886,69.9992,263.5837,271.8123,88.2705,1.0684e-05,3.4e-07,0.0,0 STARLINK-5474,1 55665U 23021AP  23268.70394425  .00000034  00000-0  10684-4 0  9990,2 55665  69.9992 263.5837 0002886 271.8123  88.2705 14.98331167 34779,6950.189,96.107,574.06,570.048,0.0
55665.0,STARLINK-5474,PAYLOAD,2023-09-26 08:55:01,14.98329162,0.0002858,69.9992,261.9008,270.0413,90.0419,2.5319e-06,-6.3e-07,0.0,0 STARLINK-5474,1 55665U 23021AP  23269.37154538 -.00000063  00000-0  25319-5 0  9998,2 55665  69.9992 261.9008 0002858 270.0413  90.0419 14.98329162 35173,6950.195,96.107,574.047,570.074,0.0
55665.0,STARLINK-5474,PAYLOAD,2023-09-27 00:56:22,14.98330934,0.0002828,69.9991,260.2171,271.2783,88.8052,-1.9549e-05,-3.26e-06,0.0,0 STARLINK-5474,1 55665U 23021AP  23270.03914457 -.00000326  00000-0 -19549-4 0  9997,2 55665  69.9991 260.2171 0002828 271.2783  88.8052 14.98330934 34979,6950.19,96.107,574.021,570.089,0.0
55665.0,STARLINK-5474,PAYLOAD,2023-09-27 08:57:02,14.98331819,0.000287,69.9991,259.3759,269.0315,91.0515,-1.5528e-05,-2.78e-06,0.0,0 STARLINK-5474,1 55665U 23021AP  23270.37294324 -.00000278  00000-0 -15528-4 0  9997,2 55665  69.9991 259.3759 0002870 269.0315  91.0515 14.98331819 35326,6950.187,96.107,574.047,570.058,0.0
55665.0,STARLINK-5474,PAYLOAD,2023-09-28 02:34:20,14.9845387,0.0002258,69.9992,257.524,238.0713,122.0227,0.0013595,0.00016217,0.0,0 STARLINK-5474,1 55665U 23021AP  23271.10718671  .00016217  00000-0  13595-2 0  9993,2 55665  69.9992 257.5240 0002258 238.0713 122.0227 14.98453870 35136,6949.81,96.099,573.244,570.106,0.0
55665.0,STARLINK-5474,PAYLOAD,2023-09-28 08:58:38,14.98613518,0.0002681,69.9989,256.8496,290.1226,69.9645,0.0029969,0.00036114,0.0,0 STARLINK-5474,1 55665U 23021AP  23271.37405879  .00036114  00000-0  29969-2 0  9995,2 55665  69.9989 256.8496 0002681 290.1226  69.9645 14.98613518 35179,6949.316,96.089,573.044,569.318,0.0
55665.0,STARLINK-5474,PAYLOAD,2023-09-28 16:59:04,14.98722137,0.0003197,69.999,256.0074,278.6388,81.4409,0.003882,0.00047014,0.0,0 STARLINK-5474,1 55665U 23021AP  23271.70769517  .00047014  00000-0  38820-2 0  9991,2 55665  69.9990 256.0074 0003197 278.6388  81.4409 14.98722137 35229,6948.981,96.082,573.067,568.624,0.0
55665.0,STARLINK-5474,PAYLOAD,2023-09-28 21:47:20,14.98787978,0.0002925,69.9989,255.5025,265.1526,94.9299,0.0043363,0.00052659,0.0,0 STARLINK-5474,1 55665U 23021AP  23271.90787127  .00052659  00000-0  43363-2 0  9999,2 55665  69.9989 255.5025 0002925 265.1526  94.9299 14.98787978 35556,6948.777,96.078,572.675,568.609,0.0
55665.0,STARLINK-5474,PAYLOAD,2023-09-29 09:00:02,14.98829079,0.0002856,69.9992,254.3256,270.8318,89.2514,0.0041971,0.00051007,0.0,0 STARLINK-5474,1 55665U 23021AP  23272.37502773  .00051007  00000-0  41971-2 0  9992,2 55665  69.9992 254.3256 0002856 270.8318  89.2514 14.98829079 35329,6948.65,96.075,572.499,568.53,0.0
55665.0,STARLINK-5474,PAYLOAD,2023-09-30 04:13:10,14.98970053,0.0002561,69.9994,252.3046,266.6291,93.4576,0.0026797,0.00032565,0.0,0 STARLINK-5474,1 55665U 23021AP  23273.17581188  .00032565  00000-0  26797-2 0  9995,2 55665  69.9994 252.3046 0002561 266.6291  93.4576 14.98970053 35449,6948.214,96.066,571.859,568.3,0.0
55665.0,STARLINK-5474,PAYLOAD,2023-09-30 09:01:25,14.98985685,0.0002584,69.9993,251.7994,265.9143,94.1721,0.0026264,0.00031926,0.0,0 STARLINK-5474,1 55665U 23021AP  23273.37599420  .00031926  00000-0  26264-2 0  9994,2 55665  69.9993 251.7994 0002584 265.9143  94.1721 14.98985685 35476,6948.166,96.065,571.826,568.236,0.0
